{"fetched_at":"2026-03-29T16:36:15Z","count":15609,"tles":[{"name":"STARLINK-35264","line1":"1 65900U 25224U   26087.85983600  .00024393  00000+0  83273-3 0  9993","line2":"2 65900  53.1593 281.9919 0001028  82.1060 278.0057 15.30210327 27805","category":"Starlink"}]}